{"type":"Feature","id":"smff5f1b09","geometry":{"type":"Polygon","coordinates":[[[41.288675631,36.29310985],[41.512522068,36.255467144],[41.932749118,36.184561044],[42.333750095,36.231100422],[42.479318943,36.237746645],[42.490305271,36.259896641],[42.512277927,36.304177794],[42.531504001,36.352858039],[42.591928806,36.419191162],[42.61115488,36.47000822],[42.649607029,36.520791985],[42.671579685,36.534034447],[42.767710056,36.534034447],[42.839121189,36.514169905],[42.866587009,36.494300262],[42.905039157,36.476634078],[42.9901832,36.461172861],[43.034128513,36.445708562],[43.083566989,36.416980969],[43.108286228,36.401507862],[43.113779392,36.397086409],[43.163217868,36.368340829],[43.190683689,36.359493898],[43.25934824,36.344009348],[43.289560642,36.330734425],[43.297800388,36.295323573],[43.289560642,36.266540414],[43.284067478,36.220022126],[43.306040134,36.18677783],[43.306040134,36.126902528],[43.281320896,36.084740655],[43.336252534,36.049218371],[43.259348237,35.835748125],[43.237375581,35.684191497],[43.292307222,35.550225501],[43.424143159,35.469738257],[43.534006441,35.43394026],[43.819650972,35.424988272],[44.00641855,35.308521928],[44.00641855,35.245739714],[44.215158785,35.048107647],[44.379953707,34.931099675],[44.456858004,34.775581124],[44.462351168,34.737219847],[44.544748629,34.696582604],[44.618906344,34.64688775],[44.676584566,34.635589308],[44.726023043,34.619768903],[44.772714937,34.592641192],[44.783701266,34.56550462],[44.783701267,34.529308747],[44.878458347,34.433087044],[44.901804295,34.417228121],[44.943003025,34.400233081],[44.959482517,34.357163528],[44.960855808,34.342424124],[45.019907315,34.320877254],[45.055612882,34.312937538],[45.077585538,34.309534575],[45.095438321,34.28911389],[45.102304776,34.252798195],[45.13389047,34.218737989],[45.169596036,34.191479905],[45.166849454,34.168758103],[45.151743253,34.11533779],[45.165476163,34.077809734],[45.202555017,34.052781787],[45.24787362,34.039127064],[45.258859948,34.007257495],[45.264353107,33.976514794],[45.297312092,33.909297605],[45.326151203,33.851151862],[45.339884113,33.811225002],[45.346750568,33.767854732],[45.37558968,33.718751361],[45.431894611,33.694760431],[45.490946125,33.666191063],[45.552744221,33.647901687],[45.57883675,33.653617535],[45.604929279,33.643328736],[45.6323951,33.609023859],[45.699686359,33.587290373],[45.746378254,33.60559262],[45.736765217,33.651331241],[45.720285725,33.660476051],[45.683206867,33.693617838],[45.657114338,33.721035862],[45.642008137,33.738167682],[45.650247883,33.761004786],[45.6323951,33.788401282],[45.604929279,33.802096244],[45.59256966,33.827197984],[45.574716877,33.850011354],[45.558237385,33.884219988],[45.536264732,33.905878363],[45.508798912,33.948039413],[45.503305748,33.949178611],[45.43876107,33.945760971],[45.420908287,33.966264755],[45.420908287,33.98904094],[45.444254234,33.994734033],[45.468973472,34.011811022],[45.477213218,34.034575],[45.478586509,34.049368311],[45.471720054,34.064159041],[45.492319419,34.081222061],[45.508798912,34.102830285],[45.534891441,34.118748604],[45.563730552,34.135800622],[45.584329917,34.147166722],[45.576090171,34.169894337],[45.558237388,34.19829525],[45.576090171,34.215331208],[45.584329917,34.261878586],[45.587076499,34.29932485],[45.571970298,34.318608838],[45.541757896,34.351494829],[45.532144859,34.345825751],[45.511545494,34.348093428],[45.496439292,34.337888396],[45.479959801,34.384367922],[45.419534996,34.443280472],[45.45249398,34.465928092],[45.518411949,34.465928092],[45.534891441,34.529308741],[45.534891441,34.565504616],[45.545877769,34.597163088],[45.578836754,34.547408647],[45.639261558,34.551933008],[45.732645348,34.538359186],[45.738138512,34.597163088],[45.705179527,34.669480011],[45.666727379,34.719161311],[45.688700035,34.764300241],[45.677713707,34.800393624],[45.732645347,34.831962377],[45.771097496,34.822943968],[45.809549644,34.859011679],[45.787576988,34.908578969],[45.837015465,34.895063582],[45.875467613,34.922092131],[45.886453941,34.95361419],[45.864481285,34.994124746],[45.875467613,35.039112969],[45.902933445,35.030117303],[45.924906101,35.034615259],[45.897440281,35.084076433],[45.974344578,35.070589993],[46.067728367,35.039112968],[46.073221531,35.052604607],[46.073221531,35.079581201],[46.100687351,35.075085721],[46.177591648,35.097560643],[46.172098484,35.115536122],[46.150125828,35.151475183],[46.19407114,35.187398377],[46.111673679,35.227792996],[46.161112156,35.295072689],[46.117166844,35.321968921],[46.045755711,35.393648475],[45.985330906,35.487631278],[46.001810398,35.514463348],[45.985330906,35.577036644],[46.045755711,35.585971699],[46.023783054,35.603838819],[45.996317234,35.639561094],[46.001810398,35.666342326],[46.040262547,35.706497333],[46.078714695,35.688653159],[46.122660008,35.688653159],[46.161112156,35.684191491],[46.194071141,35.715417923],[46.227030125,35.710957753],[46.28745493,35.737715029],[46.320413914,35.751090296],[46.347879734,35.782290513],[46.347879734,35.813478489],[46.298441258,35.826841017],[46.205057469,35.804568888],[46.1391395,35.817932915],[46.084207859,35.853559322],[46.034769382,35.835748119],[45.935892429,35.835748119],[45.89744028,35.835748119],[45.864481296,35.804568888],[45.798563327,35.817932915],[45.765604343,35.804568888],[45.738138522,35.840201294],[45.705179538,35.884719303],[45.628275241,35.938107897],[45.584329929,35.978125695],[45.49094614,35.991460454],[45.37009653,35.982570865],[45.326151217,35.991460454],[45.392069186,36.098057369],[45.364603366,36.098057369],[45.326151217,36.137993989],[45.337137547,36.17347615],[45.320658054,36.2222379],[45.265726414,36.244392291],[45.293192234,36.266540404],[45.28769907,36.279826258],[45.265726414,36.297537212],[45.276712742,36.332947059],[45.26023325,36.390453746],[45.249246922,36.42140128],[45.199808445,36.416980959],[45.150369968,36.390453746],[45.084451999,36.412560385],[45.067972507,36.46117285],[45.040506687,36.500924032],[45.007547702,36.505339571],[44.996561374,36.545068088],[45.040506687,36.567130669],[45.024027195,36.602417695],[45.067972507,36.606827439],[45.084451999,36.655317979],[45.035013523,36.739002473],[44.985575046,36.747806066],[44.941629734,36.787409741],[44.837259616,36.787409741],[44.831766452,36.800606419],[44.864725437,36.840182813],[44.908670749,36.862160853],[44.886698093,36.93244811],[44.881204929,36.989508828],[44.892191257,37.028987346],[44.831766452,37.050910995],[44.771341647,37.094739298],[44.749368991,37.121024118],[44.782327975,37.125404035],[44.776834811,37.160434242],[44.732889499,37.164811877],[44.628519382,37.186696249],[44.540628757,37.116643948],[44.452738132,37.059678682],[44.364847507,37.059678682],[44.353861179,37.037757565],[44.364847507,37.020216114],[44.309915866,36.967567459],[44.265970553,36.976344765],[44.249491061,36.998283604],[44.227518405,37.046526772],[44.178079928,37.099120735],[44.216532077,37.156056353],[44.282450045,37.169189258],[44.271463717,37.195448223],[44.249491061,37.234819551],[44.222025241,37.278541367],[44.095682467,37.322237803],[43.985819186,37.309131538],[43.958353366,37.278541367],[43.925394381,37.239192874],[43.881449069,37.21732372],[43.848490084,37.191072363],[43.8155311,37.221698058],[43.650736178,37.21732372],[43.573831881,37.24793876],[43.507913912,37.243565944],[43.452982272,37.265427487],[43.359598483,37.32660605],[43.31565317,37.309131538],[43.282694186,37.322237802],[43.156351412,37.370274552],[43.073953951,37.361542884],[42.969583834,37.317869301],[42.914652193,37.317869301],[42.826761568,37.352810199],[42.810282076,37.374640005],[42.694925631,37.278541367],[42.58506235,37.147299815],[42.365335787,37.107882848],[42.359842623,37.068445356],[41.827005709,36.584776197],[41.393045748,36.527413488],[41.294168795,36.390453745],[41.288675631,36.29310985]]]},"properties":{"name":"Disputed territories"}}