{"type":"FeatureCollection","id":"smfe9764d2","features":[{"type":"Feature","id":"sm2ed770fe","geometry":{"type":"Polygon","coordinates":[[[45.068554966,35.199528737],[45.112500278,35.096222199],[45.183911411,35.091727637],[45.24982938,35.091727637],[45.238843052,35.145646035],[45.194897739,35.150137624],[45.156445591,35.163610903],[45.134472934,35.17259185],[45.068554966,35.199528737]]]},"properties":{}},{"type":"Feature","id":"sm4265f756","geometry":{"type":"Polygon","coordinates":[[[45.194897739,34.455520902],[45.359692661,34.410213876],[45.321240512,34.460050253],[45.266308872,34.518909459],[45.134472934,34.518909459],[45.194897739,34.455520902]]]},"properties":{}},{"type":"Feature","id":"sm814b99b8","geometry":{"type":"Polygon","coordinates":[[[43.54694852,35.727468935],[43.398633091,35.727468935],[43.437085239,35.673938515],[43.486523716,35.642695844],[43.585400669,35.642695844],[43.629345981,35.620372168],[43.711743442,35.598042259],[43.777661411,35.651623569],[43.72272977,35.669476025],[43.596386997,35.68732449],[43.541455356,35.700708218],[43.54694852,35.727468935]]]},"properties":{}},{"type":"Feature","id":"sm549d1e54","geometry":{"type":"Polygon","coordinates":[[[44.656567661,35.861137656],[44.711499302,35.785419655],[44.760937778,35.72300944],[44.881787388,35.629302386],[44.964184848,35.629302387],[44.942212192,35.718549695],[44.804883091,35.772050158],[44.799389927,35.803242153],[44.727978794,35.861137656],[44.656567661,35.861137656]]]},"properties":{}},{"type":"Feature","id":"smfb235f46","geometry":{"type":"Polygon","coordinates":[[[44.711499302,35.401270527],[44.72248563,35.325116081],[44.837842075,35.271316767],[44.991650669,35.239917322],[45.013623325,35.226456693],[44.986157505,35.311669606],[44.903760044,35.343041237],[44.782910434,35.352002323],[44.766430942,35.39231491],[44.766430942,35.423655219],[44.711499302,35.401270527]]]},"properties":{}},{"type":"Feature","id":"smd3e833d5","geometry":{"type":"Polygon","coordinates":[[[45.540967075,34.902732473],[45.540967075,34.862176756],[45.590405552,34.817091382],[45.634350864,34.817091382],[45.678296177,34.82160103],[45.65632352,34.866683935],[45.634350864,34.902732473],[45.540967075,34.902732473]]]},"properties":{}},{"type":"Feature","id":"sma55c64a2","geometry":{"type":"Polygon","coordinates":[[[45.458569614,34.735875509],[45.486035434,34.708785791],[45.491528598,34.704269976],[45.551953403,34.618422657],[45.645337192,34.613901914],[45.645337192,34.645541944],[45.60139188,34.686204248],[45.551953403,34.735875509],[45.458569614,34.735875509]]]},"properties":{}}]}