{"type":"Feature","id":"sm0d025734","geometry":{"type":"Polygon","coordinates":[[[45.809549654,34.911394397],[45.787576998,34.852813669],[45.710672701,34.83478043],[45.661234224,34.735527025],[45.738138521,34.559284573],[45.743631685,34.532137113],[45.540384615,34.586423175],[45.534891451,34.477815636],[45.45249399,34.464229736],[45.518411958,34.341857169],[45.562357271,34.301026558],[45.540384615,34.123864573],[45.501932466,34.087477642],[45.490946138,34.028315517],[45.397562349,33.964556297],[45.551370943,33.877949431],[45.672220552,33.741022652],[45.716165865,33.667905493],[45.77659067,33.594726129],[45.891947115,33.635897172],[45.897440279,33.494003055],[46.194071139,33.576421576],[46.688455904,33.489421945],[46.787332857,33.622175676],[46.930155123,33.617601359],[46.996073092,33.603876949],[47.122415865,33.713611012],[47.325662936,33.718180226],[47.441019381,33.786689258],[47.490457858,33.804949086],[47.501444186,33.873388736],[47.589334811,33.964556296],[47.721170748,34.073828509],[47.803568209,34.114769307],[47.984842624,34.251095511],[48.347391452,34.391734263],[48.199076022,34.491399323],[48.127664889,34.73101267],[48.177103366,34.893374004],[48.21006235,34.965431841],[48.089212741,35.050918277],[48.023294772,35.21713526],[47.539896334,35.19918222],[47.561868991,34.969933354],[47.413553561,34.785168657],[46.671976412,34.577377958],[46.518167819,34.663267755],[46.161112155,34.712952782],[46.051248873,34.762607979],[45.809549654,34.911394397]]]},"properties":{"name":"Shia_yarsan"}}