{"type":"Feature","id":"smcea94ec1","geometry":{"type":"Polygon","coordinates":[[[44.60105356,39.756937802],[44.491190279,39.655512472],[44.48020395,39.56240832],[44.42527231,39.47765957],[44.447244966,39.409786133],[44.3044227,39.367331651],[44.205545747,39.39280744],[44.106668794,39.375824613],[44.051737153,39.401297303],[44.040750825,39.316352184],[44.095682466,39.256829155],[44.117655122,39.146152215],[44.205545747,39.137631384],[44.216532076,39.043834177],[44.216532076,38.98408011],[44.194559419,38.958455771],[44.24949106,38.855865735],[44.304422701,38.838752984],[44.315409029,38.778825945],[44.260477388,38.693128468],[44.315409029,38.572979332],[44.315409029,38.357926812],[44.42527231,38.357926812],[44.491190279,38.349311378],[44.480203951,38.30621883],[44.414285982,38.219956892],[44.403299654,38.13359256],[44.315409029,38.04712591],[44.260477388,37.917234252],[44.227518404,37.865213235],[44.403299654,37.865213235],[44.42527231,37.795794716],[44.513162935,37.769745935],[44.557108248,37.778429882],[44.655985201,37.708929756],[44.590067232,37.656761846],[44.623026217,37.534894107],[44.60105356,37.44772358],[44.710916842,37.360451361],[44.798807467,37.299300348],[44.765848482,37.19435429],[44.787821138,37.115548874],[44.820780123,37.071732605],[44.886698092,37.019119647],[44.919657076,36.940131859],[44.919657076,36.843479929],[44.831766451,36.799506791],[44.974588717,36.764310091],[45.029520357,36.72029149],[45.07346567,36.649809235],[45.084451998,36.579262412],[45.007547701,36.508651068],[45.106424654,36.429136245],[45.271219576,36.41145521],[45.293192232,36.269862088],[45.348123873,36.163498422],[45.370096529,36.074751633],[45.348123873,35.994793797],[45.359110201,35.968123151],[45.490946139,35.985904583],[45.60080942,35.977014368],[45.666727389,35.923652048],[45.765604342,35.807910111],[45.886453951,35.807910111],[46.062235201,35.825727563],[46.095194186,35.83463479],[46.150125826,35.79008866],[46.314920749,35.816819337],[46.358866061,35.763348988],[46.259989108,35.700921462],[46.095194186,35.674151831],[46.040262546,35.69199925],[45.996317233,35.611654435],[46.007303561,35.495458228],[46.040262545,35.423869202],[46.07322153,35.343255433],[46.172098483,35.271531154],[46.150125826,35.235645175],[46.238016451,35.163825574],[46.161112154,35.100931352],[46.029276217,35.055977173],[45.886453951,35.06496999],[45.875467623,34.920966122],[45.831522312,34.898442639],[45.93589243,34.853377143],[46.078714695,34.736091302],[46.227030125,34.704485851],[46.375345555,34.699969801],[46.556619969,34.645757973],[46.63901743,34.577943313],[46.715921727,34.582466013],[46.897196141,34.614118025],[47.413553562,34.776709124],[47.5453895,34.947986141],[47.534595726,35.194575127],[48.017801608,35.208720266],[47.853006686,35.468619808],[47.863993014,35.825727561],[47.896951998,36.136884917],[47.754129733,36.243284727],[47.611307467,36.305284496],[47.281717623,36.305284496],[46.875223482,36.526309948],[46.699442232,36.693868213],[46.292948092,36.887427793],[45.985330904,36.984024085],[45.633768404,37.071732603],[45.249246919,37.465165821],[45.029520356,37.743687975],[45.0075477,37.986538413],[44.787821138,38.194058339],[44.83176645,38.263100663],[44.809793794,38.435419585],[44.54612192,38.624496474],[44.425272311,38.770260824],[44.337381686,39.035300971],[44.260477389,39.103537741],[44.216532076,39.239813283],[44.227518405,39.324851342],[44.425272311,39.358837654],[44.458231295,39.418273929],[44.436258639,39.503095051],[44.480203951,39.587812776],[44.502176608,39.689337479],[44.60105356,39.756937802]]]},"properties":{"name":"Sunni"}}