{"type":"Feature","id":"sm7f0d20ce","geometry":{"type":"Polygon","coordinates":[[[42.363171658,37.067140056],[42.40711697,37.023295803],[42.412610134,36.988202171],[42.484021267,36.95309234],[42.495007595,36.948702473],[42.505993923,36.900397236],[42.511487088,36.860852011],[42.522473416,36.838873594],[42.632336697,36.79049884],[42.709240994,36.768500211],[42.764172634,36.750896762],[42.846570095,36.69806218],[42.923474392,36.742093523],[43.049817166,36.755298003],[43.159680447,36.816888859],[43.242077908,36.891611178],[43.275036892,36.95309234],[43.357434353,36.931140474],[43.362927517,36.852061403],[43.489270291,36.847665719],[43.522229275,36.847665719],[43.571667752,36.847665719],[43.615613064,36.830080458],[43.692517361,36.830080458],[43.692517361,36.900397236],[43.692517361,36.931140474],[43.654065213,36.961871316],[43.632092556,36.97064928],[43.708996853,37.036451737],[43.796887478,37.027681367],[43.917737088,36.979426231],[44.011120877,36.931140474],[44.049573025,36.878430195],[44.181408963,36.869641609],[44.258313259,36.812491154],[44.324231228,36.737691524],[44.269299588,36.676037044],[44.153943142,36.62315099],[44.033093533,36.62315099],[43.950696072,36.570228626],[43.895764431,36.517269973],[43.851819119,36.451020657],[43.796887478,36.411243883],[43.747449002,36.358176486],[43.681531033,36.313925996],[43.648572048,36.269650375],[43.599133572,36.216486474],[43.577160916,36.181023788],[43.560681423,36.154416233],[43.533215603,36.101174033],[43.46180447,36.047895728],[43.384900173,36.016800053],[43.351941189,35.976801865],[43.346448025,35.910093155],[43.346448025,35.825514653],[43.346448025,35.758678413],[43.324475369,35.700708218],[43.373913845,35.633767122],[43.373913845,35.593575529],[43.373913845,35.526544679],[43.445324978,35.486299267],[43.533215603,35.463931992],[43.516736111,35.419178778],[43.571667752,35.441558495],[43.599133572,35.463931992],[43.670544705,35.477353104],[43.698010525,35.508660319],[43.75843533,35.548894524],[43.78590115,35.598042258],[43.78590115,35.651623569],[43.75843533,35.731928181],[43.840832791,35.785419655],[43.912243923,35.856685656],[44.011120877,35.807697153],[44.115490994,35.785419655],[44.148449978,35.838875154],[44.263806423,35.838875154],[44.373669705,35.852233405],[44.467053494,35.865589407],[44.560437283,35.874492157],[44.609875759,35.896744657],[44.659314236,35.825514653],[44.659314236,35.7140897],[44.736218533,35.7140897],[44.736218533,35.611440952],[44.736218533,35.508660319],[44.763684353,35.45498334],[44.774670681,35.405747963],[44.725232205,35.378879618],[44.714245877,35.311669606],[44.681286892,35.293737494],[44.681286892,35.204017349],[44.620862088,35.177081951],[44.521985134,35.127677201],[44.604382595,35.042271099],[44.653821072,35.015282178],[44.730725369,35.01978095],[44.807629666,35.033275782],[44.901013455,34.992784605],[44.966931423,34.983783843],[44.961438259,34.866683934],[44.955945095,34.830619586],[44.999890408,34.826110432],[45.04383572,34.853161656],[45.109753689,34.826110432],[45.087781033,34.767468958],[45.148205838,34.781005307],[45.181164822,34.753930388],[45.214123806,34.627463404],[45.214123806,34.573204149],[45.274548611,34.54153655],[45.389905056,34.568680944],[45.411877713,34.546061231],[45.499768338,34.518909458],[45.527234158,34.595816479],[45.565686306,34.577727107],[45.57117947,34.559633797],[45.631604275,34.559633797],[45.675549588,34.568680944],[45.714001736,34.546061231],[45.7194949,34.546061231],[45.730481228,34.546061231],[45.735974392,34.586772285],[45.735974392,34.631983408],[45.708508572,34.650060963],[45.708508572,34.663616542],[45.703015408,34.663616542],[45.703015408,34.690721049],[45.670056423,34.717816683],[45.670056423,34.767468958],[45.69202908,34.790028307],[45.686535916,34.826110431],[45.741467556,34.848653736],[45.790906033,34.839637155],[45.807385525,34.893721821],[45.790906033,34.920750811],[45.840344509,34.907237428],[45.86781033,34.907237428],[45.878796658,34.947770903],[45.884289822,34.988284348],[45.884289822,35.024279475],[45.939221463,35.046768386],[45.928235134,35.100716514],[45.972180447,35.078242462],[46.016125759,35.073746908],[46.060071072,35.055762217],[46.0710574,35.114197973],[46.136975369,35.091727636],[46.175427517,35.109704401],[46.164441189,35.141154198],[46.191907009,35.208505714],[46.142468533,35.235430693],[46.104016384,35.253375716],[46.136975369,35.302704047],[46.125989041,35.352002323],[46.060071072,35.365442089],[45.977673611,35.499716645],[45.983166775,35.517602997],[45.999646267,35.526544678],[45.972180447,35.584641321],[46.021618923,35.584641321],[46.021618923,35.620372168],[46.005139431,35.642695844],[46.016125759,35.678400756],[46.027112088,35.700708218],[46.087536892,35.691785982],[46.131482205,35.705168961],[46.164441189,35.696247224],[46.191907009,35.705168961],[46.252331814,35.718549695],[46.279797634,35.745304421],[46.323742947,35.76759316],[46.345715603,35.807697153],[46.329236111,35.825514653],[46.296277127,35.838875154],[46.257824978,35.816606403],[46.224865994,35.821060653],[46.208386502,35.803242153],[46.175427517,35.807697152],[46.153454861,35.807697152],[46.120495877,35.847780905],[46.0710574,35.861137656],[46.021618923,35.847780905],[45.972180447,35.847780905],[45.911755642,35.812151902],[45.862317166,35.838875154],[45.807385525,35.816606402],[45.763440213,35.812151902],[45.7194949,35.861137656],[45.686535916,35.887844407],[45.648083767,35.936783396],[45.598645291,35.954571885],[45.560193142,35.994581341],[45.538220486,35.994581341],[45.461316189,35.994581341],[45.406384548,35.981247109],[45.334973416,35.963464628],[45.329480252,36.016800053],[45.362439236,36.056777952],[45.373425564,36.101174033],[45.329480252,36.132236372],[45.329480252,36.176589822],[45.318493923,36.22091818],[45.291028103,36.269650375],[45.280041775,36.300645948],[45.258069119,36.327203782],[45.252575955,36.397980429],[45.236096463,36.420084927],[45.175671658,36.424505072],[45.126233181,36.424505072],[45.060315213,36.451020657],[45.049328884,36.504024642],[45.005383572,36.530513038],[44.994397244,36.556992364],[45.021863064,36.574640209],[45.04383572,36.61874218],[45.076794705,36.676037045],[45.065808377,36.720081006],[45.032849392,36.746495268],[45.005383572,36.755298002],[44.955945095,36.755298002],[44.933972439,36.790498839],[44.884533963,36.781700145],[44.846081814,36.786099619],[44.846081814,36.830080458],[44.86805447,36.856456833],[44.895520291,36.852061402],[44.895520291,36.904789886],[44.884533963,36.966260424],[44.890027127,37.010137589],[44.895520291,37.040836542],[44.829602322,37.062756769],[44.796643338,37.075905867],[44.785657009,37.089052684],[44.747204861,37.119719723],[44.780163845,37.154752562],[44.725232205,37.172262897],[44.681286892,37.172262897],[44.659314236,37.185392987],[44.620862088,37.189769176],[44.582409939,37.154752562],[44.532971463,37.132858938],[44.494519314,37.115339477],[44.48902615,37.075905867],[44.412121853,37.058373231],[44.362683377,37.067140055],[44.34071072,37.045221094],[44.357190213,37.032066679],[44.329724392,37.014523913],[44.318738064,36.983814327],[44.280285916,36.970649279],[44.252820095,36.98820217],[44.236340603,37.023295802],[44.225354275,37.049605393],[44.203381619,37.075905867],[44.181408963,37.110958979],[44.230847439,37.159130526],[44.263806423,37.159130526],[44.269299588,37.198520794],[44.263806423,37.242263663],[44.225354275,37.277239691],[44.175915798,37.294721614],[44.120984158,37.316568305],[44.049573025,37.320936882],[44.016614041,37.329673273],[43.983655056,37.303461052],[43.939709744,37.290351514],[43.923230252,37.22476956],[43.851819119,37.216020986],[43.818860134,37.202896222],[43.774914822,37.233517119],[43.681531033,37.242263663],[43.632092556,37.237890518],[43.577160916,37.264125584],[43.505749783,37.246636555],[43.43433865,37.290351514],[43.379407009,37.29909146],[43.329968533,37.338408649],[43.313489041,37.294721614],[43.247571072,37.329673273],[43.159680447,37.360242644],[43.099255642,37.368974463],[43.05531033,37.368974463],[43.016858181,37.342775956],[42.972912869,37.320936882],[42.9069949,37.320936882],[42.857556423,37.351509808],[42.813611111,37.368974463],[42.775158963,37.368974463],[42.725720486,37.334041088],[42.714734158,37.30783039],[42.681775173,37.268497207],[42.632336697,37.259753708],[42.621350369,37.194145112],[42.593884548,37.159130526],[42.500500759,37.150374344],[42.451062283,37.150374344],[42.37965115,37.102197221],[42.346692166,37.110958979],[42.363171658,37.067140056]]]},"properties":{"name":"Kurdistan Region Iraq"}}