{"type":"Feature","id":"sma944f45c","geometry":{"type":"Polygon","coordinates":[[[43.646885948,40.648209406],[43.137364476,40.747039872],[42.741856663,40.63041261],[42.478184788,40.496874467],[42.258458226,40.388178616],[42.240635948,40.146201919],[42.082676976,40.027395013],[42.022252171,39.95163926],[41.945347874,39.808315914],[41.775059788,39.732317616],[41.549840062,39.740766013],[41.269688695,39.664693149],[41.110386937,39.719643076],[40.922276572,39.67428933],[40.665440651,39.749213371],[40.456700417,39.854718009],[40.297398659,39.808315913],[40.02823362,39.858934829],[39.82364376,39.741904389],[39.522862525,39.837848145],[39.226231666,39.884230292],[38.962559791,39.926368669],[38.671422096,39.867367684],[38.47366819,39.833630034],[38.307530479,39.758797807],[38.023228736,39.850500931],[37.6771594,39.981109811],[37.59476194,39.782992472],[37.737584205,39.652006185],[37.758214073,39.538860481],[37.534337135,39.410511658],[37.347569557,39.240540572],[37.039952369,39.117053358],[36.968541236,38.672421182],[37.045445533,38.539348536],[37.033116416,38.377051383],[36.924595924,38.190479074],[37.089390846,38.078140062],[37.14981565,37.852943698],[36.803746314,37.631407816],[36.935582252,37.365563724],[36.681553916,37.178776851],[36.529088111,37.076864571],[36.505772666,36.8805756],[36.615635948,36.739840881],[36.63459242,36.715888241],[36.629099256,36.704879015],[36.596140272,36.667435853],[36.576914198,36.656419689],[36.582407362,36.592494855],[36.585153944,36.548377883],[36.546701795,36.504235716],[36.554941541,36.440184846],[36.574167616,36.407034321],[36.618112928,36.373869646],[36.596140272,36.340690825],[36.664804823,36.340690825],[36.659311659,36.300857575],[36.75544203,36.307497863],[36.82410658,36.322989672],[36.932578184,36.310052894],[36.985656995,36.389702816],[37.020468809,36.451572974],[37.014975645,36.531064794],[37.053427794,36.592835332],[37.130332091,36.654556478],[37.267661192,36.658963234],[37.53682623,36.656759886],[37.626378135,36.58120533],[37.652040606,36.660851234],[37.701621152,36.700814887],[37.868077354,36.75744686],[37.845044227,36.583462626],[37.921948524,36.49077705],[38.130087947,36.489120947],[38.253684139,36.473662219],[38.371787166,36.489120947],[38.51186285,36.524443593],[38.616232967,36.597245622],[38.71510992,36.606065455],[39.068389033,36.601655671],[39.315581415,36.610474997],[39.430937861,36.504576592],[39.595732783,36.425057587],[39.853911494,36.517821825],[40.021397666,36.59884764],[40.197178916,36.439921719],[40.513091181,36.437211599],[40.600981806,36.426162578],[40.76852331,36.468140509],[40.861907099,36.450468354],[40.938811395,36.439421219],[41.106352899,36.423952582],[41.320586296,36.401849186],[41.399121373,36.508440012],[41.811108678,36.57905155],[42.096753209,36.790498846],[42.245068639,36.948702477],[42.470288365,36.750896769],[42.629590123,36.658412399],[42.754302116,36.499057077],[42.965733604,36.475266793],[43.08389196,36.406270366],[43.188262077,36.353199576],[43.254180046,36.260238584],[43.320098015,36.127245052],[43.347563835,35.998470089],[43.418974968,35.913986056],[43.276152702,35.798229998],[43.221221062,35.61088273],[43.25967321,35.423095692],[43.479399773,35.378319783],[43.800694541,35.461642402],[43.998448448,35.551076698],[44.396758169,35.499157651],[44.528594107,35.378319784],[44.613682823,35.264536686],[44.693389028,35.136100605],[44.811436729,35.048964144],[44.92130001,34.543745803],[45.09708126,34.253662948],[45.382725791,34.071851283],[45.27286251,33.853161203],[45.558507041,33.633909778],[45.95535763,33.55260131],[46.040501673,33.548023301],[46.087193568,33.596080285],[46.186070521,33.600655739],[46.359543071,33.526589766],[46.625523656,33.490777744],[46.674962132,33.582352448],[46.718907445,33.637250673],[46.724400599,33.673830068],[46.886448939,33.662400681],[46.905675013,33.744658377],[46.985325892,33.749225937],[47.240758031,33.929449876],[47.449498265,34.066074593],[47.592320527,34.220650035],[47.795567597,34.320518619],[48.020787324,34.211565193],[48.284459199,34.07517509],[48.712925996,34.275138509],[49.075474824,34.519899531],[49.108546122,34.754247899],[48.993077362,35.173574092],[48.751378144,35.433586443],[48.300938691,35.69276191],[48.114171112,35.84430223],[47.938389862,35.897718071],[47.982335175,36.128770213],[47.938389862,36.314894253],[47.476964081,36.429891795],[47.334141816,36.588838293],[47.202305878,36.765062363],[47.026524628,36.791461144],[46.938634003,36.809055278],[46.861729706,36.949662789],[46.773839081,37.072481851],[46.455235566,37.054948428],[46.114659394,37.142575027],[45.861973847,37.212603307],[45.664219943,37.483349164],[45.44449338,37.69228761],[45.367589083,37.874627201],[45.21378049,38.099757152],[45.141026573,38.342592594],[45.016026583,38.608062011],[44.785313693,38.659553973],[44.763341037,38.830926589],[44.488682833,38.984810048],[44.378819552,39.163918871],[44.33487424,39.38504234],[44.273106649,39.428629577],[44.455723851,39.571601352],[44.587559788,39.749213372],[44.532628148,39.95163926],[44.279942601,40.069445232],[43.939366429,40.19544021],[43.798338127,40.438338202],[43.646885948,40.648209406]]]},"properties":{"name":"Kurdistan"}}