{"type":"FeatureCollection","id":"sm64797e02","features":[{"type":"Feature","id":"sm6aab0a92","geometry":{"type":"Polygon","coordinates":[[[56.258130157,38.06422068],[56.280102813,37.934359314],[56.203198517,37.873678677],[56.093335235,37.673947385],[56.071362579,37.543397358],[56.016430938,37.438792435],[55.719800079,37.473677019],[55.59895047,37.299091462],[55.59895047,37.124099717],[55.818677032,37.150374346],[55.818677032,37.045221096],[56.060376251,37.05398944],[56.203198517,36.957481956],[56.247143829,36.852061404],[56.466870392,36.852061404],[56.697583282,36.939921981],[57.027173126,36.913574429],[57.126050079,36.896004335],[57.334790313,36.887217772],[57.477612579,36.755298004],[57.895093048,36.631967856],[58.11481961,36.534926891],[58.389477813,36.517269975],[58.521313751,36.570228628],[58.576245392,36.834477154],[58.576245392,36.966260426],[58.817944611,37.010137591],[58.872876251,36.922357958],[58.927807892,36.799296525],[59.158520782,36.790498841],[59.674878204,36.852061404],[59.762768829,36.948702475],[59.740796173,37.036451739],[59.718823517,37.14161715],[59.652905548,37.150374346],[59.608960236,37.13285894],[59.510083282,37.150374346],[59.510083282,37.229143468],[59.433178986,37.299091462],[59.378247345,37.368974466],[59.356274689,37.508545328],[59.180493439,37.543397358],[59.015698517,37.639156452],[58.806958282,37.717413122],[58.773999298,37.647855714],[58.708081329,37.630456172],[58.565259064,37.717413122],[58.455395782,37.673947385],[58.345532501,37.647855714],[58.334546173,37.691336737],[58.213696564,37.717413122],[58.202710236,37.778222335],[58.037915314,37.830304738],[57.928052032,37.882350403],[57.829175079,37.899690791],[57.774243438,37.908359454],[57.675366485,37.951687447],[57.510571563,37.960349981],[57.499585235,37.960349981],[57.334790313,38.012303729],[57.35676297,38.081518151],[57.279858673,38.159306134],[57.268872345,38.24564],[57.148022735,38.280144874],[57.115063751,38.202485864],[56.906323517,38.254267755],[56.686596954,38.297391165],[56.609692657,38.254267755],[56.378979767,38.271520192],[56.269116485,38.176581097],[56.258130157,38.06422068]]]},"properties":{"name":"Khorasan"}},{"type":"Feature","id":"sm244dd875","geometry":{"type":"Polygon","coordinates":[[[49.44660672,36.966260426],[49.160962189,36.948702475],[49.138989533,36.684847858],[49.468579376,36.614333119],[49.556470001,36.596694348],[50.237622345,36.561404706],[50.193677033,36.33162921],[50.413403595,36.526098937],[50.435376252,36.579051543],[50.435376252,36.790498842],[50.14973172,36.860852013],[49.864087189,36.860852013],[49.710278595,36.772900444],[49.62238797,36.772900444],[49.44660672,36.966260426]]]},"properties":{}},{"type":"Feature","id":"sm8f7411c9","geometry":{"type":"Polygon","coordinates":[[[48.787427033,37.35150981],[48.501782501,37.229143468],[48.545727814,37.141617151],[48.853345001,37.089052686],[48.853345001,37.159130528],[48.787427033,37.35150981]]]},"properties":{}},{"type":"Feature","id":"smf0de0687","geometry":{"type":"Polygon","coordinates":[[[48.39191922,37.960349981],[48.084302033,37.994989901],[47.754712189,37.873678678],[47.86457547,37.647855714],[48.21613797,37.543397358],[48.479809845,37.630456172],[48.479809845,37.717413122],[48.39191922,37.960349981]]]},"properties":{}},{"type":"Feature","id":"sm659bb6e6","geometry":{"type":"Polygon","coordinates":[[[41.646313756,36.468692683],[41.536450475,36.446602025],[41.487011998,36.428924968],[41.541943639,36.344903981],[41.712231725,36.375869645],[41.85505399,36.282935702],[41.85505399,36.19432418],[41.997876256,36.189890968],[42.295297946,36.231100421],[42.481274694,36.243072947],[42.492261022,36.327203785],[42.349438756,36.402401834],[42.17915067,36.384714714],[42.168164342,36.552579776],[41.992383092,36.543753838],[41.811108678,36.526098938],[41.646313756,36.468692683]]]},"properties":{}},{"type":"Feature","id":"sm2e722782","geometry":{"type":"Polygon","coordinates":[[[37.328686803,36.406822985],[37.4055911,36.3493284],[37.422070592,36.3493284],[37.498974889,36.282935701],[37.570386022,36.282935701],[37.724194615,36.282935701],[37.751660436,36.35375257],[37.735180943,36.397980431],[37.718701451,36.473110059],[37.509961217,36.437763999],[37.328686803,36.406822985]]]},"properties":{}},{"type":"Feature","id":"sm843bdda2","geometry":{"type":"Polygon","coordinates":[[[37.17007169,36.250548763],[37.160286991,36.255255391],[37.148270695,36.258023864],[37.135911076,36.25705491],[37.13024625,36.251240932],[37.123208134,36.244457411],[37.118916599,36.240442397],[37.114281742,36.23504257],[37.10775861,36.229919312],[37.104668705,36.215655503],[37.11651334,36.209007402],[37.137284367,36.214409027],[37.14020261,36.222303039],[37.147069065,36.222995458],[37.151532261,36.218148395],[37.165608494,36.217594426],[37.167668431,36.222164554],[37.167153447,36.234211794],[37.164750188,36.241688458],[37.169213383,36.245288078],[37.169213383,36.247364706],[37.169213383,36.247364706],[37.17007169,36.250548763]]]},"properties":{}},{"type":"Feature","id":"smcf6ef1df","geometry":{"type":"Polygon","coordinates":[[[36.229453184,38.0344811],[36.284384824,37.878556653],[36.449179746,37.835185584],[36.460166074,37.956560252],[36.570029355,37.965222212],[36.723837949,37.878556653],[36.767783262,38.008516682],[36.822714902,38.181438946],[36.745810605,38.22460556],[36.438193418,38.259120421],[36.350302793,38.267746575],[36.339316465,38.362566652],[36.339316465,38.474466811],[36.372275449,38.577605355],[36.372275449,38.672019115],[36.262412168,38.706320565],[36.064658262,38.603366889],[35.943808652,38.440054455],[35.932822324,38.310861981],[35.976767637,38.198708663],[36.053671934,38.103674559],[36.229453184,38.0344811]]]},"properties":{}},{"type":"Feature","id":"smc88f0e40","geometry":{"type":"Polygon","coordinates":[[[34.966025449,37.678838556],[35.119834043,37.696226762],[35.284628965,37.713610891],[35.306601621,37.809150695],[35.130820371,37.878556652],[34.998984434,37.800470358],[34.878134824,37.826508307],[34.812216855,37.878556652],[34.66939459,37.835185583],[34.72432623,37.704919336],[34.72432623,37.583130575],[34.801230527,37.583130575],[34.801230527,37.678838556],[34.966025449,37.678838556]]]},"properties":{}},{"type":"Feature","id":"smc893f303","geometry":{"type":"Polygon","coordinates":[[[34.427695371,39.201841096],[34.383750058,39.150741098],[34.383750058,39.048429722],[34.427695371,39.005756173],[34.603476621,39.005756173],[34.72432623,39.108129402],[34.581503965,39.193327009],[34.526572324,39.201841096],[34.427695371,39.201841096]]]},"properties":{}},{"type":"Feature","id":"sm1005ad27","geometry":{"type":"Polygon","coordinates":[[[33.537802793,39.439816399],[33.537802793,39.269916644],[33.735556699,39.252903949],[33.779502012,39.235887126],[33.878378965,39.193327009],[33.84541998,39.091077505],[33.999228574,39.091077505],[34.14205084,39.176295739],[34.14205084,39.286925209],[34.109091855,39.414357779],[33.889365293,39.405869505],[33.702597715,39.405869505],[33.647666074,39.490705733],[33.537802793,39.439816399]]]},"properties":{}},{"type":"Feature","id":"smc4f6ae31","geometry":{"type":"Polygon","coordinates":[[[33.680625058,38.886133229],[33.680625058,38.723465121],[33.823447324,38.723465121],[33.889365293,38.749174246],[33.900351621,38.749174246],[34.010214902,38.594780737],[34.010214902,38.508862748],[34.087119199,38.508862748],[34.054160215,38.319481987],[34.273886777,38.319481987],[34.339804746,38.353951768],[34.438681699,38.500265302],[34.383750058,38.577605353],[34.262900449,38.577605353],[34.164023496,38.646282235],[34.164023496,38.826246084],[34.010214902,38.860473485],[33.812460996,38.903234578],[33.735556699,38.92887888],[33.680625058,38.886133229]]]},"properties":{}},{"type":"Feature","id":"sm810ab941","geometry":{"type":"Polygon","coordinates":[[[33.329062558,38.4314488],[33.307089902,38.276371704],[33.427939511,38.164165133],[33.625693418,38.155526693],[33.724570371,38.250493241],[33.559775449,38.28499581],[33.49385748,38.397015929],[33.43892584,38.440054454],[33.329062558,38.4314488]]]},"properties":{}},{"type":"Feature","id":"sm50c9c57d","geometry":{"type":"Polygon","coordinates":[[[31.867880918,40.742487949],[31.867880918,40.659197895],[32.03267584,40.625852716],[32.26338873,40.70085594],[32.351279355,40.709184425],[32.395224668,40.742487949],[32.472128965,40.684195846],[32.757773496,40.800729008],[33.043418027,40.85891901],[33.14229498,40.941958983],[33.296103574,41.033182514],[33.394980527,41.206985959],[33.416953184,41.273075703],[33.285117246,41.347346766],[33.186240293,41.31434785],[33.032431699,41.190453082],[33.010459043,41.124279815],[32.955527402,41.07460603],[32.856650449,41.04975505],[32.757773496,41.058039753],[32.450156308,41.024894681],[32.516074277,40.917057938],[32.494101621,40.833986691],[32.285361386,40.85891901],[32.08760748,40.842298506],[32.010703183,40.75913346],[31.867880918,40.742487949]]]},"properties":{}},{"type":"Feature","id":"smf61de385","geometry":{"type":"Polygon","coordinates":[[[36.08663092,40.567458574],[36.031699279,40.41706809],[36.174521545,40.41706809],[36.218466857,40.41706809],[36.218466857,40.4672357],[36.31734381,40.525717251],[36.383261779,40.525717251],[36.383261779,40.559112391],[36.339316467,40.725838269],[36.251425842,40.725838269],[36.185507873,40.675864236],[36.163535217,40.575803717],[36.08663092,40.567458574]]]},"properties":{}},{"type":"Feature","id":"sm2c983bf1","geometry":{"type":"Polygon","coordinates":[[[35.636191467,40.366863045],[35.702109435,40.350119713],[35.746054748,40.341746488],[35.833945373,40.375233152],[35.888877013,40.408703182],[35.844931701,40.4672357],[35.768027404,40.458877032],[35.713095763,40.475593328],[35.811972717,40.550765167],[35.724082092,40.550765167],[35.625205138,40.475593328],[35.636191467,40.366863045]]]},"properties":{"name":"TK"}},{"type":"Feature","id":"sm3f578896","geometry":{"type":"Polygon","coordinates":[[[35.713095763,40.115276679],[35.91084967,40.12367795],[35.987753967,40.115276679],[36.020712951,40.098471022],[35.987753967,39.997549911],[35.987753967,39.91333488],[36.064658263,39.91333488],[36.119589904,39.91333488],[36.163535217,39.980715201],[36.240439513,39.989133075],[36.328330138,40.00596571],[36.361289123,40.115276679],[36.49312506,40.098471022],[36.548056701,40.098471022],[36.548056701,40.132078184],[36.690878967,40.140477379],[36.690878967,40.190850746],[36.624960998,40.241186728],[36.460166076,40.274723273],[36.26241217,40.266340695],[36.207480529,40.241186728],[36.196494201,40.241186728],[36.196494201,40.241186728],[36.196494201,40.241186728],[36.020712951,40.224412222],[35.899863342,40.266340695],[35.779013732,40.266340695],[35.73506842,40.207633561],[35.702109435,40.174063777],[35.61421881,40.174063777],[35.713095763,40.115276679]]]},"properties":{"name":"Tokat Kurden"}},{"type":"Feature","id":"sma8c4787f","geometry":{"type":"Polygon","coordinates":[[[35.73506842,39.511898638],[35.888877013,39.435573942],[36.031699279,39.494944831],[36.14156256,39.571204387],[36.14156256,39.689663802],[36.14156256,39.740370016],[36.08663092,39.833234572],[35.91084967,39.731921569],[35.79000006,39.706570015],[35.79000006,39.672753448],[35.73506842,39.511898638]]]},"properties":{"name":"Yozgat Sivas Kurds"}},{"type":"Feature","id":"smbb750075","geometry":{"type":"Polygon","coordinates":[[[34.262900451,40.25376488],[34.38375006,40.178260909],[34.713339904,40.178260909],[34.746298888,39.841670588],[34.50459967,39.841670588],[34.471640685,39.664296718],[34.691367248,39.350670544],[34.900107482,39.342174523],[35.295615295,39.520373991],[35.493369201,39.655838953],[35.471396545,39.841670588],[35.229697326,39.95966598],[35.284628967,40.060643116],[35.548300842,40.094268959],[35.55928717,40.178260909],[35.460410217,40.245379705],[35.405478576,40.421250155],[35.504355529,40.521541689],[35.471396545,40.596662022],[35.38350592,40.646695405],[35.119834045,40.746649717],[35.020957092,40.821517014],[35.053916076,40.954405986],[34.955039123,40.93780946],[34.966025451,40.754972473],[34.823203185,40.73832592],[34.801230529,40.696691307],[34.801230529,40.638359111],[34.768271545,40.546591166],[34.614462951,40.55493891],[34.570517638,40.61334398],[34.515585998,40.61334398],[34.493613342,40.504836836],[34.493613342,40.412885767],[34.471640685,40.320808879],[34.262900451,40.25376488]]]},"properties":{"name":"Corum and Yozgat Kurds"}},{"type":"Feature","id":"sm8fab3ed3","geometry":{"type":"Polygon","coordinates":[[[35.79000006,37.072070954],[35.932822326,37.203443138],[35.932822326,37.290897796],[35.877890685,37.290897796],[35.932822326,37.369520174],[35.96578131,37.500374532],[35.833945373,37.50909002],[35.757041076,37.578777284],[35.592246154,37.500374532],[35.43843756,37.369520174],[35.317587951,37.299637678],[35.306601623,37.212193171],[35.427451232,37.177186954],[35.460410217,37.063304699],[35.328574279,37.001912554],[35.361533263,36.940470795],[35.603232482,36.949251225],[35.713095763,37.063304699],[35.746054748,37.115887027],[35.79000006,37.072070954]]]},"properties":{"name":"Adana Kurd"}},{"type":"Feature","id":"sm4dedf5dc","geometry":{"type":"Polygon","coordinates":[[[31.236185399,39.69356444],[31.235665617,39.699921298],[31.234114465,39.706177333],[31.231556408,39.712233923],[31.228031787,39.717995618],[31.223596188,39.723371636],[31.218319562,39.728277295],[31.212285125,39.732635337],[31.205588045,39.736377143],[31.198333937,39.739443806],[31.190637203,39.741787057],[31.182619226,39.743370017],[31.174406454,39.744167773],[31.166128407,39.744167773],[31.157915635,39.743370017],[31.149897658,39.741787057],[31.142200925,39.739443806],[31.134946817,39.736377143],[31.128249736,39.732635337],[31.1222153,39.728277295],[31.116938674,39.723371636],[31.112503074,39.717995618],[31.108978453,39.712233923],[31.106420396,39.706177333],[31.104869245,39.699921298],[31.104349462,39.69356444],[31.104869245,39.687206997],[31.106420396,39.680949243],[31.108978453,39.674889907],[31.112503074,39.669124613],[31.116938674,39.663744368],[31.1222153,39.658834121],[31.128249736,39.654471417],[31.134946817,39.650725169],[31.142200925,39.647654561],[31.149897658,39.645308112],[31.157915635,39.643722902],[31.166128407,39.642923984],[31.174406454,39.642923984],[31.182619226,39.643722902],[31.190637203,39.645308112],[31.198333937,39.647654561],[31.205588045,39.650725169],[31.212285125,39.654471417],[31.218319562,39.658834121],[31.223596188,39.663744368],[31.228031787,39.669124613],[31.231556408,39.674889907],[31.234114465,39.680949243],[31.235665617,39.687206997],[31.236185399,39.69356444]]]},"properties":{"name":"AK"}},{"type":"Feature","id":"smfdce4a18","geometry":{"type":"Polygon","coordinates":[[[33.043418029,39.833234572],[33.032431701,39.723472086],[33.164267638,39.655838953],[33.373007873,39.554265059],[33.405966857,39.511898638],[33.50484381,39.5796725],[33.482871154,39.638920318],[33.351035217,39.638920318],[33.241171935,39.715021568],[33.197226623,39.782596716],[33.109335998,39.841670588],[33.109335998,39.875404289],[33.043418029,39.833234572]]]},"properties":{"name":"AK"}},{"type":"Feature","id":"sm17c67875","geometry":{"type":"Polygon","coordinates":[[[32.45015631,39.968086447],[31.74703131,39.799480146],[31.659140685,39.596605621],[31.439414123,39.528848309],[31.263632873,39.56273524],[31.087851623,39.393135158],[30.956015685,39.325179381],[31.263632873,39.291176705],[31.351523498,39.189069579],[31.790976623,39.120915619],[31.834921935,38.916057888],[31.834921935,38.779156529],[32.09859381,38.744890035],[32.230429748,38.98440974],[32.27437506,38.98440974],[32.054648498,38.573310867],[32.669882873,38.607659579],[32.669882873,38.881857249],[32.768759824,39.210354151],[32.680869199,39.346422662],[32.713828183,39.516136443],[32.669882871,39.626228625],[32.603964902,39.727696956],[32.318320373,39.799480146],[32.45015631,39.968086447]]]},"properties":{"name":"Ankara Kurds"}},{"type":"Feature","id":"smb2a986f9","geometry":{"type":"Polygon","coordinates":[[[31.324076024,39.862430591],[31.32320972,39.872999063],[31.320624467,39.883399273],[31.316361039,39.893467317],[31.310486671,39.903044596],[31.303094005,39.911980306],[31.294299629,39.920133801],[31.284242234,39.927376797],[31.273080433,39.933595371],[31.260990253,39.938691746],[31.248162364,39.942585805],[31.234799069,39.945216347],[31.221111116,39.946542033],[31.207314371,39.946542033],[31.193626417,39.945216347],[31.180263122,39.942585805],[31.167435233,39.938691746],[31.155345053,39.933595371],[31.144183252,39.927376797],[31.134125858,39.920133801],[31.125331482,39.911980306],[31.117938816,39.903044596],[31.112064448,39.893467317],[31.107801019,39.883399273],[31.105215767,39.872999063],[31.104349462,39.862430591],[31.105215767,39.851860492],[31.107801019,39.8414555],[31.112064448,39.83137982],[31.117938816,39.821792533],[31.125331482,39.81284507],[31.134125858,39.804678815],[31.144183252,39.797422855],[31.155345053,39.791191927],[31.167435233,39.786084585],[31.180263122,39.782181634],[31.193626417,39.779544834],[31.207314371,39.778215918],[31.221111116,39.778215918],[31.234799069,39.779544834],[31.248162364,39.782181634],[31.260990253,39.786084585],[31.273080433,39.791191927],[31.284242234,39.797422855],[31.294299629,39.804678815],[31.303094005,39.81284507],[31.310486671,39.821792533],[31.316361039,39.83137982],[31.320624467,39.8414555],[31.32320972,39.851860492],[31.324076024,39.862430591]]]},"properties":{}},{"type":"Feature","id":"smd003faaa","geometry":{"type":"Polygon","coordinates":[[[32.82340369,38.860143278],[32.823016267,38.864938161],[32.821860107,38.869657111],[32.819953444,38.874225728],[32.817326346,38.878571999],[32.814020246,38.882627428],[32.810087281,38.886328111],[32.805589477,38.889615748],[32.800597768,38.892438551],[32.795190875,38.894752059],[32.789454069,38.89651984],[32.783477822,38.897714056],[32.777356383,38.898315902],[32.771186291,38.898315902],[32.765064852,38.897714056],[32.759088605,38.89651984],[32.753351799,38.894752059],[32.747944906,38.892438551],[32.742953197,38.889615748],[32.738455393,38.886328111],[32.734522428,38.882627428],[32.731216328,38.878571999],[32.72858923,38.874225728],[32.726682567,38.869657111],[32.725526407,38.864938161],[32.725138984,38.860143278],[32.725526407,38.855348071],[32.726682567,38.850628171],[32.72858923,38.846058038],[32.731216328,38.841709779],[32.734522428,38.837652016],[32.738455393,38.833948798],[32.742953197,38.830658587],[32.747944906,38.827833331],[32.753351799,38.825517644],[32.759088605,38.823748097],[32.765064852,38.822552639],[32.771186291,38.821950151],[32.777356383,38.821950151],[32.783477822,38.822552639],[32.789454069,38.823748097],[32.795190875,38.825517644],[32.800597768,38.827833331],[32.805589477,38.830658587],[32.810087281,38.833948798],[32.814020246,38.837652016],[32.817326346,38.841709779],[32.819953444,38.846058038],[32.821860107,38.850628171],[32.823016267,38.855348071],[32.82340369,38.860143278]]]},"properties":{}},{"type":"Feature","id":"sme6a0a1f0","geometry":{"type":"Polygon","coordinates":[[[32.801431034,38.723134279],[32.80104361,38.727938388],[32.799887451,38.732666418],[32.797980787,38.737243827],[32.79535369,38.741598463],[32.792047589,38.745661696],[32.788114625,38.749369504],[32.783616821,38.752663469],[32.778625112,38.755491706],[32.773218219,38.757809669],[32.767481413,38.759580854],[32.761505166,38.760777368],[32.755383727,38.761380373],[32.749213635,38.761380373],[32.743092196,38.760777368],[32.737115949,38.759580854],[32.731379142,38.757809669],[32.72597225,38.755491706],[32.72098054,38.752663469],[32.716482737,38.749369504],[32.712549772,38.745661696],[32.709243672,38.741598463],[32.706616574,38.737243827],[32.704709911,38.732666418],[32.703553751,38.727938388],[32.703166328,38.723134279],[32.703553751,38.718329847],[32.704709911,38.713600868],[32.706616574,38.709021944],[32.709243672,38.704665323],[32.712549772,38.700599757],[32.716482737,38.696889418],[32.72098054,38.693592881],[32.72597225,38.690762193],[32.731379142,38.688442054],[32.737115949,38.686669105],[32.743092196,38.685471349],[32.749213635,38.684867703],[32.755383727,38.684867703],[32.761505166,38.685471349],[32.767481413,38.686669105],[32.773218219,38.688442054],[32.778625112,38.690762193],[32.783616821,38.693592881],[32.788114625,38.696889418],[32.792047589,38.700599757],[32.79535369,38.704665323],[32.797980787,38.709021944],[32.799887451,38.713600868],[32.80104361,38.718329847],[32.801431034,38.723134279]]]},"properties":{}},{"type":"Feature","id":"smedd9a9bf","geometry":{"type":"Polygon","coordinates":[[[32.955239628,39.320601891],[32.954852204,39.32536557],[32.953696044,39.330053805],[32.951789381,39.334592684],[32.949162284,39.338910662],[32.945856183,39.342939687],[32.941923218,39.346616275],[32.937425415,39.349882505],[32.932433706,39.352686925],[32.927026813,39.354985368],[32.921290007,39.356741636],[32.915313759,39.357928073],[32.90919232,39.358526],[32.903022229,39.358526],[32.89690079,39.357928073],[32.890924542,39.356741636],[32.885187736,39.354985368],[32.879780843,39.352686925],[32.874789134,39.349882505],[32.870291331,39.346616275],[32.866358366,39.342939687],[32.863052265,39.338910662],[32.860425168,39.334592684],[32.858518505,39.330053805],[32.857362345,39.32536557],[32.856974921,39.320601891],[32.857362345,39.315837888],[32.858518505,39.3111487],[32.860425168,39.306608299],[32.863052265,39.302288327],[32.866358366,39.29825696],[32.870291331,39.294577829],[32.874789134,39.291309016],[32.879780843,39.288502134],[32.885187736,39.286201505],[32.890924542,39.284443465],[32.89690079,39.283255781],[32.903022229,39.282657211],[32.90919232,39.282657211],[32.915313759,39.283255781],[32.921290007,39.284443465],[32.927026813,39.286201505],[32.932433706,39.288502134],[32.937425415,39.291309016],[32.941923218,39.294577829],[32.945856183,39.29825696],[32.949162284,39.302288327],[32.951789381,39.306608299],[32.953696044,39.3111487],[32.954852204,39.315837888],[32.955239628,39.320601891]]]},"properties":{}},{"type":"Feature","id":"smf6750338","geometry":{"type":"Polygon","coordinates":[[[33.037943212,39.20151248],[33.03759669,39.205780504],[33.036562589,39.209980966],[33.034857218,39.214047639],[33.03250747,39.217916418],[33.029550404,39.221526329],[33.026032654,39.224820483],[33.022009696,39.22774698],[33.017544975,39.230259714],[33.012708904,39.232319104],[33.007577748,39.233892715],[33.00223243,39.234955762],[32.996757249,39.235491504],[32.99123855,39.235491504],[32.985763369,39.234955762],[32.980418051,39.233892715],[32.975286895,39.232319104],[32.970450824,39.230259714],[32.965986103,39.22774698],[32.961963145,39.224820483],[32.958445395,39.221526329],[32.955488329,39.217916418],[32.953138581,39.214047639],[32.95143321,39.209980966],[32.950399109,39.205780504],[32.950052587,39.20151248],[32.950399109,39.197244197],[32.95143321,39.193042974],[32.953138581,39.188975085],[32.955488329,39.185104711],[32.958445395,39.181492928],[32.961963145,39.178196741],[32.965986103,39.17526818],[32.970450824,39.172753478],[32.975286895,39.17069234],[32.980418051,39.169117313],[32.985763369,39.16805327],[32.99123855,39.167517013],[32.996757249,39.167517013],[33.00223243,39.16805327],[33.007577748,39.169117313],[33.012708904,39.17069234],[33.017544975,39.172753478],[33.022009696,39.17526818],[33.026032654,39.178196741],[33.029550404,39.181492928],[33.03250747,39.185104711],[33.034857218,39.188975085],[33.036562589,39.193042974],[33.03759669,39.197244197],[33.037943212,39.20151248]]]},"properties":{}},{"type":"Feature","id":"sm93db1729","geometry":{"type":"Polygon","coordinates":[[[33.114235262,39.065162675],[33.113460415,39.074724407],[33.111148095,39.084134079],[33.107334769,39.093243385],[33.102080574,39.10190881],[33.095468373,39.10999388],[33.087602444,39.117371311],[33.078606837,39.123924993],[33.068623418,39.129551816],[33.057809633,39.134163271],[33.04633602,39.137686839],[33.034383526,39.140067118],[33.022140648,39.141266686],[33.009800464,39.141266686],[32.997557586,39.140067118],[32.985605092,39.137686839],[32.974131479,39.134163271],[32.963317693,39.129551816],[32.953334275,39.123924993],[32.944338668,39.117371311],[32.936472739,39.10999388],[32.929860537,39.10190881],[32.924606343,39.093243385],[32.920793016,39.084134079],[32.918480696,39.074724407],[32.91770585,39.065162675],[32.918480696,39.055599648],[32.920793016,39.046186171],[32.924606343,39.03707079],[32.929860537,39.028397402],[32.936472739,39.02030298],[32.944338668,39.012915397],[32.953334275,39.0063514],[32.963317693,39.000714748],[32.974131479,38.996094566],[32.985605092,38.992563923],[32.997557586,38.990178665],[33.009800464,38.988976527],[33.022140648,38.988976527],[33.034383526,38.990178665],[33.04633602,38.992563923],[33.057809633,38.996094566],[33.068623418,39.000714748],[33.078606837,39.0063514],[33.087602444,39.012915397],[33.095468373,39.02030298],[33.102080574,39.028397402],[33.107334769,39.03707079],[33.111148095,39.046186171],[33.113460415,39.055599648],[33.114235262,39.065162675]]]},"properties":{}},{"type":"Feature","id":"sm1b5cf483","geometry":{"type":"Polygon","coordinates":[[[33.175933908,38.91145374],[33.174672549,38.92705229],[33.170908365,38.942401494],[33.164700719,38.957259522],[33.15614751,38.971392431],[33.145383626,38.984577833],[33.132578821,38.99660837],[33.117935034,39.007294944],[33.101683206,39.016469666],[33.084079638,39.023988456],[33.06540195,39.029733284],[33.045944699,39.03361399],[33.026014738,39.035569684],[33.005926374,39.035569684],[32.985996413,39.03361399],[32.966539161,39.029733284],[32.947861473,39.023988456],[32.930257906,39.016469666],[32.914006078,39.007294944],[32.899362291,38.99660837],[32.886557485,38.984577833],[32.875793602,38.971392431],[32.867240392,38.957259522],[32.861032747,38.942401494],[32.857268563,38.92705229],[32.856007204,38.91145374],[32.857268563,38.89585176],[32.861032747,38.880492486],[32.867240392,38.865618378],[32.875793602,38.85146439],[32.886557485,38.838254234],[32.899362291,38.826196825],[32.914006078,38.815482947],[32.930257906,38.806282207],[32.947861473,38.798740318],[32.966539161,38.792976764],[32.985996413,38.789082878],[33.005926374,38.787120381],[33.026014738,38.787120381],[33.045944699,38.789082878],[33.06540195,38.792976764],[33.084079638,38.798740318],[33.101683206,38.806282207],[33.117935034,38.815482947],[33.132578821,38.826196825],[33.145383626,38.838254234],[33.15614751,38.85146439],[33.164700719,38.865618378],[33.170908365,38.880492486],[33.174672549,38.89585176],[33.175933908,38.91145374]]]},"properties":{}}]}