{"type":"FeatureCollection","id":"smc5f49b34","features":[{"type":"Feature","id":"sm688821cb","geometry":{"type":"Polygon","coordinates":[[[38.005136831,36.828641814],[38.027109487,36.771460723],[38.043588979,36.745055054],[38.076547964,36.674595509],[37.961191518,36.595251325],[37.768930776,36.582019352],[37.516245229,36.568785111],[37.417368276,36.484915594],[37.373422964,36.396533701],[37.516245229,36.24605362],[37.768930776,36.259342958],[37.900766714,36.121910849],[38.027109487,36.184006828],[38.043588979,36.188440373],[38.104013784,36.170704686],[38.186411245,36.170704686],[38.285288198,36.2238997],[38.323740347,36.232762021],[38.384165151,36.179573032],[38.472055765,36.179573031],[38.631357523,36.197306711],[38.741220804,36.232762021],[38.862070414,36.27705856],[38.900522562,36.308051191],[38.944467875,36.352305017],[38.988413187,36.369999508],[39.070810648,36.396533701],[39.202646586,36.392111964],[39.285044047,36.365576262],[39.372934672,36.339031508],[39.449838969,36.281486833],[39.466318461,36.206172045],[39.433359476,36.152964985],[39.383921,36.11747354],[39.433359476,36.059765716],[39.521250101,36.064206283],[39.576181742,36.090844424],[39.576181742,36.139657574],[39.686045023,36.175138984],[39.76294932,36.19730671],[39.779428812,36.237192805],[39.823374125,36.312477704],[39.894785258,36.356729016],[40.05958018,36.365576262],[40.158457133,36.361152765],[40.306772563,36.352305016],[40.339731547,36.294770142],[40.372690532,36.223899699],[40.444101664,36.148529431],[40.466074321,36.050883829],[40.47156748,36.00201554],[40.537485448,35.948670117],[40.669321386,35.899738484],[40.757212011,35.881937658],[40.894541113,35.855228916],[41.031870215,35.859680998],[41.114267676,35.868584412],[41.207651465,35.899738484],[41.273569433,35.913086478],[41.312021582,35.944223038],[41.240610449,36.064206283],[41.290048926,36.3965337],[41.388925875,36.52906878],[41.828378996,36.586430262],[42.366709074,37.074471858],[42.344736418,37.122666619],[42.311777434,37.162075887],[42.317270598,37.197089108],[42.344736418,37.227712361],[42.306284269,37.25395097],[42.273325285,37.280180444],[42.234873137,37.297661683],[42.179941496,37.288921571],[42.201914152,37.328244078],[42.15796884,37.258323183],[42.081064543,37.218964128],[42.026132902,37.183961052],[41.921762785,37.162075887],[41.734995211,37.127046438],[41.636118258,37.118286542],[41.575693453,37.113906213],[41.4768165,37.070088994],[41.394419039,37.061322511],[41.251596774,37.070088994],[41.224130953,37.065705879],[41.180185641,37.08323682],[41.147226656,37.100763708],[40.790170992,37.148941743],[40.658335059,37.109525632],[40.597910254,37.070088995],[40.553964942,37.03940187],[40.510019629,37.026246446],[40.422129004,37.021860798],[40.356211035,36.991154176],[40.295786231,36.925312515],[40.169443457,36.894566928],[40.130991309,36.868203707],[40.03760752,36.846227404],[39.966196387,36.824244783],[39.883798926,36.793458501],[39.839853613,36.758259023],[39.697031348,36.753857952],[39.581674902,36.731848809],[39.427866309,36.705429508],[39.224619238,36.679001122],[39.164194434,36.679001122],[39.059824321,36.705429509],[38.955454204,36.709833357],[38.856577251,36.705429509],[38.790659282,36.709833357],[38.702768657,36.714236952],[38.614878032,36.789059451],[38.543466899,36.837435114],[38.510507915,36.868203708],[38.428110454,36.903352647],[38.296274516,36.912137353],[38.252329204,36.920921048],[38.175424907,36.920921048],[38.12598643,36.890173691],[38.043588969,36.87259821],[38.016123149,36.855018684],[38.005136831,36.828641814]]]},"properties":{"name":"Kobani before"}},{"type":"Feature","id":"sm5c763a1b","geometry":{"type":"Polygon","coordinates":[[[36.670297987,36.830290639],[36.664804823,36.810502442],[36.670297987,36.799506789],[36.645578748,36.784110222],[36.63459242,36.768710561],[36.609873182,36.744504844],[36.631845838,36.707080987],[36.6071266,36.685058435],[36.596140272,36.669638896],[36.574167616,36.665232746],[36.585153944,36.601315225],[36.592020399,36.57926241],[36.581034071,36.558306399],[36.576914198,36.536241298],[36.572794325,36.522999215],[36.545328504,36.504235716],[36.545328504,36.488780007],[36.545328504,36.475529802],[36.554941542,36.474425516],[36.560434705,36.462277332],[36.556314831,36.445708557],[36.563181287,36.439080056],[36.568674451,36.419191157],[36.572794324,36.41477071],[36.586527234,36.392664699],[36.607126599,36.393770149],[36.603006726,36.379398074],[36.604380017,36.372763913],[36.59476698,36.371658165],[36.619486218,36.358387956],[36.601633435,36.348433815],[36.605753308,36.325202536],[36.611246472,36.335159647],[36.624979382,36.336265914],[36.631845837,36.338478401],[36.629099255,36.346221611],[36.641458875,36.338478401],[36.660684949,36.338478401],[36.666178113,36.325202536],[36.655191785,36.310817796],[36.660684949,36.300857575],[36.699137097,36.30417779],[36.744455701,36.320776745],[36.762308484,36.309711168],[36.789774304,36.301964329],[36.848825818,36.314137587],[36.888651257,36.303071067],[36.933969861,36.301964329],[36.955942517,36.311924409],[37.012247449,36.311924409],[37.043833142,36.311924409],[37.080912,36.319670258],[37.093271619,36.349539893],[37.078165418,36.388242742],[37.080912,36.414770709],[37.086405164,36.439080056],[37.130350477,36.434660741],[37.168802625,36.425821356],[37.237467176,36.430241174],[37.22922743,36.470008214],[37.193521864,36.514169899],[37.149576551,36.534034441],[37.116617567,36.567130675],[37.050699598,36.538448091],[37.072672254,36.575953943],[37.080912,36.613441587],[37.083658582,36.628872381],[37.083658582,36.635484633],[37.056879408,36.645401947],[37.056192754,36.655317984],[37.045206426,36.659173875],[37.032160161,36.665783527],[37.021173833,36.664681957],[37.014994024,36.684507789],[37.011560789,36.687811595],[37.020487181,36.698823265],[37.036966673,36.701575936],[37.043146483,36.712035187],[37.045893065,36.716989072],[37.041773193,36.726895885],[37.034220093,36.73680142],[37.013620727,36.73735169],[36.995081299,36.740653227],[36.993708008,36.744504841],[36.998514526,36.749456631],[36.995767944,36.754958246],[36.993708008,36.758809142],[36.995081299,36.762659845],[36.995081299,36.765410228],[36.977915161,36.762109756],[36.95662915,36.769810637],[36.945642822,36.775860786],[36.937403076,36.774210792],[36.932596557,36.774210792],[36.93396984,36.779710631],[36.92779003,36.779160664],[36.924356803,36.786309917],[36.903757437,36.780260593],[36.895517691,36.77806072],[36.883158072,36.779160664],[36.863931998,36.783010345],[36.837839469,36.790159238],[36.831659659,36.791808888],[36.810373649,36.794558226],[36.79801403,36.796207781],[36.77810131,36.797857301],[36.761621818,36.81105218],[36.747202262,36.820397176],[36.73072277,36.819297824],[36.72454296,36.824244785],[36.712869987,36.828092199],[36.692957267,36.825344066],[36.675791129,36.829191425],[36.670297987,36.830290639]]]},"properties":{"name":"Afrin"}}]}