{"type":"FeatureCollection","id":"smda31591d","features":[{"type":"Feature","id":"sm364a8d12","geometry":{"type":"Polygon","coordinates":[[[36.609873141,36.340690828],[36.642832126,36.30971117],[36.697763766,36.283147376],[37.005380954,36.283147376],[37.080912,36.319670258],[37.130350477,36.434660741],[37.292398776,36.371658169],[37.444834079,36.442394382],[37.567984125,36.483841369],[37.69065317,36.524102811],[37.834848727,36.583673479],[37.966684665,36.601315229],[37.961191518,36.595251325],[38.00101694,36.618952941],[38.036722506,36.643198216],[38.076547946,36.668537386],[38.071054787,36.687811592],[38.065561618,36.711484742],[38.021616305,36.764310095],[38.021616305,36.82589371],[37.977670993,36.830290642],[37.884287204,36.795108092],[37.823862399,36.764310095],[37.713999118,36.755508394],[37.648081149,36.746705681],[37.494272555,36.66302958],[37.466806735,36.627770287],[37.444834079,36.640994416],[37.302011813,36.667435855],[37.208628024,36.67184188],[37.170175876,36.654216271],[37.148203219,36.676247652],[37.098764743,36.67184188],[37.082285251,36.636586624],[37.065805759,36.649809237],[37.005380954,36.68065317],[37.032846774,36.698272725],[37.049326266,36.724694487],[37.021860446,36.751107166],[36.928476657,36.786309927],[36.890024509,36.773110782],[36.82410654,36.786309927],[36.752695407,36.817099079],[36.670297946,36.834687324],[36.67579111,36.803905241],[36.615366305,36.755508394],[36.626352634,36.702676984],[36.576914157,36.67184188],[36.593393649,36.557203297],[36.549448337,36.50423572],[36.560434665,36.451231877],[36.571420993,36.40703433],[36.604379977,36.39377015],[36.604379977,36.371658168],[36.609873141,36.340690828]]]},"properties":{"name":"TC"}},{"type":"Feature","id":"smdac68297","geometry":{"type":"Polygon","coordinates":[[[38.959574069,36.702676986],[38.921121921,36.636586626],[38.926615085,36.574851096],[38.98703989,36.477738332],[39.003519382,36.420296234],[39.36606821,36.402613187],[40.019754734,36.605725037],[40.277933445,36.649809239],[40.376810398,36.658623053],[40.404276218,36.698272728],[40.201029148,36.843479933],[40.195535984,36.88303415],[39.981302585,36.821496522],[39.849466648,36.777510751],[39.816507663,36.759909371],[39.69016489,36.751107166],[39.591287937,36.72469449],[39.426493015,36.698272728],[39.250711765,36.676247654],[39.173807468,36.676247654],[39.036478367,36.707080992],[39.01450571,36.711484745],[38.959574069,36.702676986]]]},"properties":{"name":"TC"}},{"type":"Feature","id":"sm95e1fbf6","geometry":{"type":"Polygon","coordinates":[[[38.027109475,36.837435114],[38.016123147,36.758259024],[38.071054787,36.687811594],[38.186411232,36.665783523],[38.224863381,36.612890425],[38.244089456,36.579813801],[38.288034767,36.548929495],[38.244089455,36.513618029],[38.266062111,36.45178418],[38.194650978,36.420848754],[38.172678322,36.354517047],[38.216623635,36.314690866],[38.211130471,36.274844329],[38.079294533,36.212820385],[38.046335541,36.12856634],[38.046335541,36.039780061],[38.145212494,35.999793533],[38.073801361,35.946446608],[38.051828705,35.781733472],[38.062815033,35.674709617],[38.178171478,35.545197404],[38.227609955,35.487072178],[38.320993744,35.451281895],[38.436350189,35.437856432],[38.496774994,35.410998791],[38.732981049,35.375174675],[39.095529877,35.321408671],[39.293283783,35.285544792],[39.34272226,35.397566613],[39.474558197,35.545197404],[39.617380463,35.714860413],[39.683298432,35.799556796],[39.776682221,35.812921666],[39.798654877,35.750533036],[39.831613858,35.634538611],[39.84809335,35.603280529],[39.914011319,35.58094585],[39.957956631,35.522846528],[39.990915616,35.4781261],[40.067819913,35.460230958],[40.117258389,35.388610582],[40.194162686,35.366216159],[40.227121671,35.294512251],[40.293039639,35.263121795],[40.34797128,35.240692593],[40.402902921,35.173367764],[40.435861905,35.105987138],[40.457834561,35.079019276],[40.457834561,35.047545499],[40.529245694,34.989062017],[40.578684171,34.930536723],[40.573191007,34.894500388],[40.578684171,34.813360821],[40.650095304,34.786296521],[40.781931241,34.754710277],[40.842356046,34.677950518],[40.886301359,34.614683123],[40.897287687,34.560415517],[40.886301359,34.506112482],[40.96869882,34.483475767],[40.99616464,34.438183905],[41.084055265,34.614683123],[41.221384366,34.790807855],[41.210398038,35.276576337],[41.265329679,35.402044253],[41.254343347,35.504961342],[41.386179284,35.621143784],[41.369699792,35.857454985],[41.254343347,36.06642647],[41.309274987,36.398744471],[41.402658776,36.535689582],[41.831125573,36.59304615],[42.358469323,37.067897467],[42.352976159,37.133615694],[42.320017175,37.164264685],[42.320017175,37.194901254],[42.347482995,37.234272866],[42.314524011,37.269252604],[42.314524011,37.277995],[42.237619714,37.282365818],[42.221140221,37.304216098],[42.226633385,37.321691752],[42.182688073,37.29984655],[42.144235924,37.260509192],[42.089304284,37.221151279],[41.995920495,37.168642099],[41.919016198,37.155509098],[41.748728112,37.142373816],[41.655344323,37.129236253],[41.539987877,37.107335245],[41.463083581,37.072280456],[41.314768157,37.076663192],[41.221384368,37.063514226],[41.166452727,37.098573068],[40.853342375,37.142373817],[40.787424407,37.142373817],[40.71052011,37.116096409],[40.639108977,37.098573068],[40.545725192,37.059130731],[40.512766207,37.024053653],[40.397409762,37.015281851],[40.320505465,36.953850891],[40.20514902,36.896763452],[40.117258395,36.86600636],[40.051340426,36.861611479],[39.946970309,36.804455022],[39.854959809,36.776410772],[39.776682223,36.747255872],[39.71694406,36.74945663],[39.644846281,36.72579519],[39.40864023,36.694418785],[39.214319545,36.671841871],[39.059824306,36.707631464],[38.897775973,36.70322749],[38.711008394,36.712035185],[38.568186129,36.830840232],[38.397898043,36.901156312],[38.320993746,36.901156312],[38.255075777,36.923116813],[38.17817148,36.914333371],[38.117746676,36.887976977],[38.084787691,36.883583359],[38.027109475,36.837435114]]]},"properties":{"name":"Kobani neu"}}]}