{"type":"FeatureCollection","id":"smfbfed28e","features":[{"type":"Feature","id":"sm90a6d332","geometry":{"type":"Polygon","coordinates":[[[45.45307645,34.160586742],[45.359692661,34.355813036],[45.260815708,34.364882297],[45.244336216,34.351278037],[45.260815708,34.283223626],[45.45307645,34.160586742]]]},"properties":{}},{"type":"Feature","id":"smff5f1b09","geometry":{"type":"Polygon","coordinates":[[[41.288675631,36.29310985],[41.512522068,36.255467144],[41.932749118,36.184561044],[42.333750095,36.231100422],[42.479318943,36.237746645],[42.490305271,36.259896641],[42.512277927,36.304177794],[42.531504001,36.352858039],[42.591928806,36.419191162],[42.61115488,36.47000822],[42.649607029,36.520791985],[42.671579685,36.534034447],[42.767710056,36.534034447],[42.839121189,36.514169905],[42.866587009,36.494300262],[42.905039157,36.476634078],[42.9901832,36.461172861],[43.034128513,36.445708562],[43.083566989,36.416980969],[43.108286228,36.401507862],[43.113779392,36.397086409],[43.163217868,36.368340829],[43.190683689,36.359493898],[43.25934824,36.344009348],[43.289560642,36.330734425],[43.297800388,36.295323573],[43.289560642,36.266540414],[43.284067478,36.220022126],[43.306040134,36.18677783],[43.306040134,36.126902528],[43.281320896,36.084740655],[43.336252534,36.049218371],[43.259348237,35.835748125],[43.237375581,35.684191497],[43.292307222,35.550225501],[43.424143159,35.469738257],[43.534006441,35.43394026],[43.819650972,35.424988272],[44.00641855,35.308521928],[44.00641855,35.245739714],[44.215158785,35.048107647],[44.379953707,34.931099675],[44.456858004,34.775581124],[44.462351168,34.737219847],[44.544748629,34.696582604],[44.618906344,34.64688775],[44.676584566,34.635589308],[44.726023043,34.619768903],[44.772714937,34.592641192],[44.783701266,34.56550462],[44.783701267,34.529308747],[44.878458347,34.433087044],[44.901804295,34.417228121],[44.943003025,34.400233081],[44.959482517,34.357163528],[44.960855808,34.342424124],[45.019907315,34.320877254],[45.055612882,34.312937538],[45.077585538,34.309534575],[45.095438321,34.28911389],[45.102304776,34.252798195],[45.13389047,34.218737989],[45.169596036,34.191479905],[45.166849454,34.168758103],[45.151743253,34.11533779],[45.165476163,34.077809734],[45.202555017,34.052781787],[45.24787362,34.039127064],[45.258859948,34.007257495],[45.264353107,33.976514794],[45.297312092,33.909297605],[45.326151203,33.851151862],[45.339884113,33.811225002],[45.346750568,33.767854732],[45.37558968,33.718751361],[45.431894611,33.694760431],[45.490946125,33.666191063],[45.552744221,33.647901687],[45.57883675,33.653617535],[45.604929279,33.643328736],[45.6323951,33.609023859],[45.699686359,33.587290373],[45.746378254,33.60559262],[45.736765217,33.651331241],[45.720285725,33.660476051],[45.683206867,33.693617838],[45.657114338,33.721035862],[45.642008137,33.738167682],[45.650247883,33.761004786],[45.6323951,33.788401282],[45.604929279,33.802096244],[45.59256966,33.827197984],[45.574716877,33.850011354],[45.558237385,33.884219988],[45.536264732,33.905878363],[45.508798912,33.948039413],[45.503305748,33.949178611],[45.43876107,33.945760971],[45.420908287,33.966264755],[45.420908287,33.98904094],[45.444254234,33.994734033],[45.468973472,34.011811022],[45.477213218,34.034575],[45.478586509,34.049368311],[45.471720054,34.064159041],[45.492319419,34.081222061],[45.508798912,34.102830285],[45.534891441,34.118748604],[45.563730552,34.135800622],[45.584329917,34.147166722],[45.576090171,34.169894337],[45.558237388,34.19829525],[45.576090171,34.215331208],[45.584329917,34.261878586],[45.587076499,34.29932485],[45.571970298,34.318608838],[45.541757896,34.351494829],[45.532144859,34.345825751],[45.511545494,34.348093428],[45.496439292,34.337888396],[45.479959801,34.384367922],[45.419534996,34.443280472],[45.45249398,34.465928092],[45.518411949,34.465928092],[45.534891441,34.529308741],[45.534891441,34.565504616],[45.545877769,34.597163088],[45.578836754,34.547408647],[45.639261558,34.551933008],[45.732645348,34.538359186],[45.738138512,34.597163088],[45.705179527,34.669480011],[45.666727379,34.719161311],[45.688700035,34.764300241],[45.677713707,34.800393624],[45.732645347,34.831962377],[45.771097496,34.822943968],[45.809549644,34.859011679],[45.787576988,34.908578969],[45.837015465,34.895063582],[45.875467613,34.922092131],[45.886453941,34.95361419],[45.864481285,34.994124746],[45.875467613,35.039112969],[45.902933445,35.030117303],[45.924906101,35.034615259],[45.897440281,35.084076433],[45.974344578,35.070589993],[46.067728367,35.039112968],[46.073221531,35.052604607],[46.073221531,35.079581201],[46.100687351,35.075085721],[46.177591648,35.097560643],[46.172098484,35.115536122],[46.150125828,35.151475183],[46.19407114,35.187398377],[46.111673679,35.227792996],[46.161112156,35.295072689],[46.117166844,35.321968921],[46.045755711,35.393648475],[45.985330906,35.487631278],[46.001810398,35.514463348],[45.985330906,35.577036644],[46.045755711,35.585971699],[46.023783054,35.603838819],[45.996317234,35.639561094],[46.001810398,35.666342326],[46.040262547,35.706497333],[46.078714695,35.688653159],[46.122660008,35.688653159],[46.161112156,35.684191491],[46.194071141,35.715417923],[46.227030125,35.710957753],[46.28745493,35.737715029],[46.320413914,35.751090296],[46.347879734,35.782290513],[46.347879734,35.813478489],[46.298441258,35.826841017],[46.205057469,35.804568888],[46.1391395,35.817932915],[46.084207859,35.853559322],[46.034769382,35.835748119],[45.935892429,35.835748119],[45.89744028,35.835748119],[45.864481296,35.804568888],[45.798563327,35.817932915],[45.765604343,35.804568888],[45.738138522,35.840201294],[45.705179538,35.884719303],[45.628275241,35.938107897],[45.584329929,35.978125695],[45.49094614,35.991460454],[45.37009653,35.982570865],[45.326151217,35.991460454],[45.392069186,36.098057369],[45.364603366,36.098057369],[45.326151217,36.137993989],[45.337137547,36.17347615],[45.320658054,36.2222379],[45.265726414,36.244392291],[45.293192234,36.266540404],[45.28769907,36.279826258],[45.265726414,36.297537212],[45.276712742,36.332947059],[45.26023325,36.390453746],[45.249246922,36.42140128],[45.199808445,36.416980959],[45.150369968,36.390453746],[45.084451999,36.412560385],[45.067972507,36.46117285],[45.040506687,36.500924032],[45.007547702,36.505339571],[44.996561374,36.545068088],[45.040506687,36.567130669],[45.024027195,36.602417695],[45.067972507,36.606827439],[45.084451999,36.655317979],[45.035013523,36.739002473],[44.985575046,36.747806066],[44.941629734,36.787409741],[44.837259616,36.787409741],[44.831766452,36.800606419],[44.864725437,36.840182813],[44.908670749,36.862160853],[44.886698093,36.93244811],[44.881204929,36.989508828],[44.892191257,37.028987346],[44.831766452,37.050910995],[44.771341647,37.094739298],[44.749368991,37.121024118],[44.782327975,37.125404035],[44.776834811,37.160434242],[44.732889499,37.164811877],[44.628519382,37.186696249],[44.540628757,37.116643948],[44.452738132,37.059678682],[44.364847507,37.059678682],[44.353861179,37.037757565],[44.364847507,37.020216114],[44.309915866,36.967567459],[44.265970553,36.976344765],[44.249491061,36.998283604],[44.227518405,37.046526772],[44.178079928,37.099120735],[44.216532077,37.156056353],[44.282450045,37.169189258],[44.271463717,37.195448223],[44.249491061,37.234819551],[44.222025241,37.278541367],[44.095682467,37.322237803],[43.985819186,37.309131538],[43.958353366,37.278541367],[43.925394381,37.239192874],[43.881449069,37.21732372],[43.848490084,37.191072363],[43.8155311,37.221698058],[43.650736178,37.21732372],[43.573831881,37.24793876],[43.507913912,37.243565944],[43.452982272,37.265427487],[43.359598483,37.32660605],[43.31565317,37.309131538],[43.282694186,37.322237802],[43.156351412,37.370274552],[43.073953951,37.361542884],[42.969583834,37.317869301],[42.914652193,37.317869301],[42.826761568,37.352810199],[42.810282076,37.374640005],[42.694925631,37.278541367],[42.58506235,37.147299815],[42.365335787,37.107882848],[42.359842623,37.068445356],[41.827005709,36.584776197],[41.393045748,36.527413488],[41.294168795,36.390453745],[41.288675631,36.29310985]]]},"properties":{"name":"Disputed territories"}},{"type":"Feature","id":"sm63fb1039","geometry":{"type":"Polygon","coordinates":[[[42.404370396,36.671631261],[42.360425083,36.658412396],[42.371411411,36.631967855],[42.459302036,36.640783711],[42.481274692,36.658412396],[42.404370396,36.671631261]]]},"properties":{}},{"type":"Feature","id":"sm8daf3f2f","geometry":{"type":"Polygon","coordinates":[[[42.459302036,37.071523087],[42.481274692,37.023295802],[42.629590122,37.045221094],[42.624096958,37.084670665],[42.541699497,37.093434449],[42.536206333,37.093434449],[42.459302036,37.071523087]]]},"properties":{}},{"type":"Feature","id":"smb3abe90c","geometry":{"type":"Polygon","coordinates":[[[42.310986607,36.733289274],[42.300000278,36.693657658],[42.349438755,36.693657658],[42.420849888,36.70246645],[42.382397739,36.733289274],[42.310986607,36.733289274]]]},"properties":{}},{"type":"Feature","id":"smfe071700","geometry":{"type":"Polygon","coordinates":[[[42.43732938,36.72888677],[42.492261021,36.693657657],[42.514233677,36.684847856],[42.591137974,36.684847856],[42.629590122,36.72888677],[42.624096958,36.750896762],[42.530713169,36.768500211],[42.43732938,36.72888677]]]},"properties":{}},{"type":"Feature","id":"smdf8f3b81","geometry":{"type":"Polygon","coordinates":[[[42.28901395,36.77730042],[42.343945591,36.830080458],[42.382397739,36.830080458],[42.398877232,36.88721777],[42.321972935,36.896004333],[42.283520786,36.95309234],[42.23408231,36.909182283],[42.195630161,36.865246936],[42.28901395,36.77730042]]]},"properties":{}},{"type":"Feature","id":"sm95ba94aa","geometry":{"type":"Polygon","coordinates":[[[42.569165317,36.667225225],[42.547192661,36.623150991],[42.547192661,36.623150991],[42.602124302,36.623150991],[42.722973911,36.627559548],[42.701001255,36.662818936],[42.64057645,36.671631261],[42.569165317,36.667225225]]]},"properties":{}},{"type":"Feature","id":"smd7d036bd","geometry":{"type":"Polygon","coordinates":[[[41.695752232,36.54816693],[41.635327427,36.508440005],[41.701245396,36.495193163],[41.750683872,36.512855115],[41.745190708,36.534926889],[41.695752232,36.54816693]]]},"properties":{}},{"type":"Feature","id":"sm17d8f351","geometry":{"type":"Polygon","coordinates":[[[42.305493442,36.605514236],[42.278027622,36.57464021],[42.28901395,36.565816791],[42.332959263,36.561404704],[42.420849888,36.561404704],[42.426343052,36.579051541],[42.382397739,36.601104417],[42.349438755,36.601104417],[42.305493442,36.605514236]]]},"properties":{}},{"type":"Feature","id":"sm2a5dc83a","geometry":{"type":"Polygon","coordinates":[[[41.635327427,36.353752568],[41.591382114,36.322778105],[41.640820591,36.318352176],[41.684765903,36.318352176],[41.70673856,36.318352176],[41.70673856,36.344903979],[41.70673856,36.349328399],[41.635327427,36.353752568]]]},"properties":{}},{"type":"Feature","id":"sm4aa05e01","geometry":{"type":"Polygon","coordinates":[[[42.926220982,36.596694346],[42.799878208,36.596694346],[42.739453403,36.592284023],[42.673535435,36.556992365],[42.744946567,36.539340488],[42.876782505,36.552579773],[42.882275669,36.570228626],[42.926220982,36.596694346]]]},"properties":{}},{"type":"Feature","id":"sm77240a43","geometry":{"type":"Polygon","coordinates":[[[42.475781528,36.570228626],[42.497754185,36.534926889],[42.503247349,36.534926889],[42.530713169,36.534926889],[42.563672153,36.54816693],[42.558178989,36.579051541],[42.475781528,36.570228626]]]},"properties":{}},{"type":"Feature","id":"sm9e49586b","geometry":{"type":"Polygon","coordinates":[[[43.014111607,36.384714711],[42.959179966,36.340479306],[42.975659458,36.331629208],[43.036084263,36.318352176],[43.145947544,36.318352176],[43.069043247,36.367023567],[43.014111607,36.384714711]]]},"properties":{}},{"type":"Feature","id":"sm3abb69c8","geometry":{"type":"Polygon","coordinates":[[[43.025097935,36.69806218],[43.069043247,36.654005603],[43.11298856,36.654005603],[43.233838169,36.654005603],[43.233838169,36.706870467],[43.11298856,36.720081006],[43.025097935,36.69806218]]]},"properties":{}},{"type":"Feature","id":"sm3a6f08c6","geometry":{"type":"Polygon","coordinates":[[[42.629590122,36.495193163],[42.624096958,36.455439041],[42.635083286,36.455439041],[42.728467075,36.437763997],[42.711987583,36.477527182],[42.629590122,36.495193163]]]},"properties":{}},{"type":"Feature","id":"sm8994303a","geometry":{"type":"Polygon","coordinates":[[[42.827344028,36.517269974],[42.821850864,36.473110057],[42.827344028,36.473110057],[42.893261997,36.428924965],[43.014111607,36.428924965],[42.99213895,36.451020657],[42.926220982,36.508440005],[42.827344028,36.517269974]]]},"properties":{}},{"type":"Feature","id":"smaf423fb9","geometry":{"type":"Polygon","coordinates":[[[42.744946567,36.37144673],[42.668042271,36.367023567],[42.668042271,36.367023567],[42.722973911,36.322778105],[42.821850864,36.300645948],[42.794385044,36.353752568],[42.744946567,36.37144673]]]},"properties":{}},{"type":"Feature","id":"sm8ac4ffa3","geometry":{"type":"Polygon","coordinates":[[[43.123974888,36.291791326],[43.091015903,36.251933093],[43.123974888,36.238642494],[43.195386021,36.234211792],[43.272290317,36.234211792],[43.228345005,36.278507509],[43.123974888,36.291791326]]]},"properties":{}},{"type":"Feature","id":"sm1d38d2e4","geometry":{"type":"Polygon","coordinates":[[[43.069043247,36.207622308],[43.129468052,36.145545042],[43.222851841,36.070099408],[43.365674107,36.021243044],[43.49201688,35.999025585],[43.49201688,36.047895728],[43.283276646,36.132236372],[43.173413364,36.207622308],[43.069043247,36.207622308]]]},"properties":{}},{"type":"Feature","id":"smff77df1c","geometry":{"type":"Polygon","coordinates":[[[43.612866489,36.216486474],[43.634839146,36.194324178],[43.66779813,36.198757139],[43.689770786,36.238642494],[43.623852817,36.260792236],[43.612866489,36.216486474]]]},"properties":{}},{"type":"Feature","id":"smeb12ac64","geometry":{"type":"Polygon","coordinates":[[[43.11298856,36.016800053],[43.080029575,35.972356369],[43.173413364,35.936783396],[43.261303989,35.861137656],[43.371167271,35.861137656],[43.365674107,35.923439401],[43.255810825,35.936783396],[43.206372349,36.00791332],[43.11298856,36.016800053]]]},"properties":{}},{"type":"Feature","id":"sm710859cc","geometry":{"type":"Polygon","coordinates":[[[43.49201688,36.110050241],[43.513989536,36.065659174],[43.585400669,36.065659174],[43.651318638,36.118925446],[43.563428013,36.136672846],[43.475537388,36.181023788],[43.49201688,36.110050241]]]},"properties":{}},{"type":"Feature","id":"smd13ab64a","geometry":{"type":"Polygon","coordinates":[[[43.728222935,36.318352176],[43.728222935,36.287363638],[43.755688755,36.282935699],[43.788647739,36.282935699],[43.788647739,36.309499565],[43.728222935,36.318352176]]]},"properties":{}},{"type":"Feature","id":"sm067c7883","geometry":{"type":"Polygon","coordinates":[[[43.28876981,35.602508739],[43.338208286,35.548894524],[43.34370145,35.548894524],[43.442578403,35.486299267],[43.486523716,35.441558495],[43.585400669,35.396792843],[43.717236606,35.392314909],[43.623852817,35.446033692],[43.546948521,35.499716645],[43.481030552,35.557832718],[43.28876981,35.602508739]]]},"properties":{}},{"type":"Feature","id":"sm58df0d20","geometry":{"type":"Polygon","coordinates":[[[43.151440708,35.665013285],[43.14045438,35.602508739],[43.250317661,35.598042258],[43.261303989,35.642695844],[43.261303989,35.647159831],[43.261303989,35.660550296],[43.151440708,35.665013285]]]},"properties":{}},{"type":"Feature","id":"sm40ab8d10","geometry":{"type":"Polygon","coordinates":[[[44.480786411,35.356482494],[44.519238559,35.311669606],[44.552197544,35.311669606],[44.640088169,35.244403701],[44.700512973,35.284769948],[44.656567661,35.325116081],[44.579663364,35.329597743],[44.54670438,35.37440069],[44.480786411,35.356482494]]]},"properties":{}},{"type":"Feature","id":"smd148c2b4","geometry":{"type":"Polygon","coordinates":[[[44.085278598,35.665013285],[44.118237583,35.611440952],[44.145703403,35.584641321],[44.145703403,35.580173844],[44.162182895,35.580173844],[44.200635044,35.557832718],[44.217114536,35.58910855],[44.167676059,35.638231608],[44.134717075,35.660550296],[44.085278598,35.665013285]]]},"properties":{}},{"type":"Feature","id":"smcb0f8e44","geometry":{"type":"Polygon","coordinates":[[[43.475537388,35.856685656],[43.475537388,35.789875654],[43.530469028,35.776506907],[43.552441684,35.829968403],[43.535962192,35.829968403],[43.475537388,35.856685656]]]},"properties":{}},{"type":"Feature","id":"sm8cf87b0f","geometry":{"type":"Polygon","coordinates":[[[43.920483677,36.052336966],[43.953442661,35.967910624],[44.013867466,35.936783396],[44.101758091,35.896744657],[44.167676059,35.861137656],[44.244580356,35.861137656],[44.343457309,35.76759316],[44.348950473,35.740845924],[44.39838895,35.629302387],[44.513745395,35.620372168],[44.590649692,35.60697497],[44.689526645,35.557832718],[44.695019809,35.611440952],[44.590649692,35.656087057],[44.568677036,35.72300944],[44.491772739,35.829968403],[44.403882114,35.932335648],[44.299511997,35.972356369],[44.151196567,36.030128274],[43.920483677,36.052336966]]]},"properties":{}},{"type":"Feature","id":"sm0535c3ac","geometry":{"type":"Polygon","coordinates":[[[43.876538364,35.861137656],[43.909497348,35.825514653],[43.942456333,35.798786903],[43.953442661,35.740845924],[44.01936063,35.687324489],[44.101758091,35.727468935],[44.035840122,35.780963406],[43.969922153,35.843328155],[43.876538364,35.861137656]]]},"properties":{}},{"type":"Feature","id":"smb4e58795","geometry":{"type":"Polygon","coordinates":[[[44.184155552,35.709629455],[44.151196567,35.678400756],[44.189648716,35.660550296],[44.233594028,35.647159831],[44.244580356,35.598042258],[44.310498325,35.598042258],[44.315991489,35.638231608],[44.310498325,35.682862748],[44.255566684,35.696247225],[44.184155552,35.709629455]]]},"properties":{}},{"type":"Feature","id":"sm6b620a6a","geometry":{"type":"Polygon","coordinates":[[[44.244580356,35.539955333],[44.266553013,35.472879649],[44.294018833,35.437083049],[44.39838895,35.39231491],[44.42585477,35.432607355],[44.376416294,35.477353104],[44.343457309,35.48182631],[44.283032505,35.535485364],[44.283032505,35.535485364],[44.244580356,35.539955333]]]},"properties":{}},{"type":"Feature","id":"sm9e8126c4","geometry":{"type":"Polygon","coordinates":[[[43.739209263,35.37440069],[43.706250278,35.33856032],[43.711743442,35.320634171],[43.755688755,35.280285803],[43.865552036,35.275801409],[43.920483677,35.266831877],[43.980908481,35.230943817],[43.991894809,35.204017349],[44.079785434,35.190550766],[44.123730747,35.190550766],[44.134717075,35.172591849],[44.189648716,35.132169781],[44.261059848,35.132169781],[44.348950473,35.132169781],[44.420361606,35.132169781],[44.414868442,35.073746908],[44.535718052,35.055762217],[44.491772739,35.145646035],[44.420361606,35.150137624],[44.414868442,35.163610903],[44.365429966,35.212993831],[44.255566684,35.226456693],[44.134717075,35.2174817],[44.123730747,35.30718695],[44.057812778,35.347521904],[43.953442661,35.329597743],[43.838086216,35.369921514],[43.739209263,35.37440069]]]},"properties":{}},{"type":"Feature","id":"sm6699f5ec","geometry":{"type":"Polygon","coordinates":[[[44.738965122,35.244403701],[44.733471958,35.186061409],[44.77741727,35.177081951],[44.799389927,35.0962222],[44.887280552,35.0962222],[44.909253208,35.055762217],[44.947705356,35.033275782],[45.057568638,34.961277611],[45.167431919,34.938765195],[45.167431919,35.019780951],[45.085034458,35.078242462],[45.008130161,35.114197973],[44.892773716,35.204017349],[44.738965122,35.244403701]]]},"properties":{}},{"type":"Feature","id":"sm1fec35bc","geometry":{"type":"Polygon","coordinates":[[[43.66779813,35.248889833],[43.700757114,35.195039875],[43.711743442,35.186061409],[43.750195591,35.1681015],[43.832593052,35.1681015],[43.887524692,35.1681015],[43.799634067,35.230943817],[43.783154575,35.244403701],[43.66779813,35.248889833]]]},"properties":{}},{"type":"Feature","id":"sm55c33f43","geometry":{"type":"Polygon","coordinates":[[[45.079541294,34.82160103],[44.975171177,34.826110432],[44.854321567,34.826110432],[44.854321567,34.771981321],[45.052075473,34.708785791],[45.194897739,34.690721049],[45.194897739,34.636503167],[45.282788364,34.650060963],[45.24982938,34.767468958],[45.172925083,34.776493438],[45.079541294,34.82160103]]]},"properties":{}},{"type":"Feature","id":"sm023b1dfa","geometry":{"type":"Polygon","coordinates":[[[45.211377231,34.93426197],[45.233349888,34.866683935],[45.370678989,34.799050319],[45.458569614,34.776493438],[45.590405552,34.790028307],[45.48054227,34.812581486],[45.398144809,34.862176755],[45.315747348,34.880203989],[45.266308872,34.929758497],[45.211377231,34.93426197]]]},"properties":{}}]}